ONEWEB-0156             
1 48052U 21025L   26075.18149569  .00000410  00000+0  10876-2 0  9990
2 48052  87.9039 338.7180 0001794  74.5059 285.6268 13.13470516241362
ONEWEB-0161             
1 48053U 21025M   26075.15610047 -.00000280  00000+0 -80232-3 0  9993
2 48053  87.9033 338.7315 0001779  68.3798 291.7521 13.13472403241290
ONEWEB-0158             
1 48054U 21025N   26075.19165029  .00000226  00000+0  58418-3 0  9992
2 48054  87.9040 338.7157 0001700  89.8163 270.3161 13.13470622241420
ONEWEB-0157             
1 48055U 21025P   26075.14086303 -.00000278  00000+0 -79508-3 0  9997
2 48055  87.9040 338.7302 0002103  72.0613 288.0745 13.13470646241357
ONEWEB-0162             
1 48056U 21025Q   26075.19319935  .00000143  00000+0  35802-3 0  9991
2 48056  87.9040 338.7243 0001684  74.4111 285.7204 13.13468624241339
ONEWEB-0155             
1 48057U 21025R   26075.20011636 -.00000015  00000+0 -75529-4 0  9992
2 48057  87.9034 338.7217 0001923  78.8871 281.2475 13.13469761241470
ONEWEB-0149             
1 48058U 21025S   26075.14593814 -.00000231  00000+0 -66874-3 0  9991
2 48058  87.9040 338.7296 0001625  72.5107 287.6200 13.13471207241279
ONEWEB-0148             
1 48059U 21025T   26075.18486721  .00000372  00000+0  98258-3 0  9999
2 48059  87.9032 338.7361 0001645  58.4276 301.7013 13.13472025241400
ONEWEB-0160             
1 48060U 21025U   26075.20179915 -.00000055  00000+0 -18561-3 0  9997
2 48060  87.9031 338.7291 0001349 103.2305 256.8975 13.13470507241350
ONEWEB-0163             
1 48061U 21025V   26075.18657354  .00000341  00000+0  89970-3 0  9991
2 48061  87.9033 338.7246 0002007  74.2681 285.8670 13.13470842241478
ONEWEB-0159             
1 48062U 21025W   26075.17811056  .00000303  00000+0  79444-3 0  9995
2 48062  87.9041 338.7132 0001848  72.1801 287.9530 13.13469677241398
ONEWEB-0164             
1 48063U 21025X   26075.15948348  .00000078  00000+0  17794-3 0  9998
2 48063  87.9043 338.7235 0001727  81.3184 278.8141 13.13471141241371
ONEWEB-0167             
1 48064U 21025Y   26075.18743055  .00000278  00000+0  72735-3 0  9998
2 48064  87.9031 338.7365 0002407  84.3072 275.8331 13.13471347241363
ONEWEB-0166             
1 48065U 21025Z   26075.13408641 -.00000246  00000+0 -70809-3 0  9990
2 48065  87.9041 338.7103 0001723  72.4140 287.7178 13.13470944241430
ONEWEB-0151             
1 48066U 21025AA  26075.13578879 -.00000251  00000+0 -72238-3 0  9996
2 48066  87.9033 338.7354 0001852  81.0265 279.1074 13.13470322241370
ONEWEB-0170             
1 48067U 21025AB  26075.14424428 -.00000237  00000+0 -68400-3 0  9998
2 48067  87.9031 338.7350 0001831  93.8491 266.2847 13.13471138241331
