[{"OBJECT_NAME":"ONEWEB-0156","OBJECT_ID":"2021-025L","EPOCH":"2026-03-16T04:21:21.227616","MEAN_MOTION":13.13470516,"ECCENTRICITY":0.00017947,"INCLINATION":87.9039,"RA_OF_ASC_NODE":338.718,"ARG_OF_PERICENTER":74.5059,"MEAN_ANOMALY":285.6268,"EPHEMERIS_TYPE":0,"CLASSIFICATION_TYPE":"U","NORAD_CAT_ID":48052,"ELEMENT_SET_NO":999,"REV_AT_EPOCH":24136,"BSTAR":0.0010876261,"MEAN_MOTION_DOT":4.1e-6,"MEAN_MOTION_DDOT":0},{"OBJECT_NAME":"ONEWEB-0161","OBJECT_ID":"2021-025M","EPOCH":"2026-03-16T03:44:47.080608","MEAN_MOTION":13.13472403,"ECCENTRICITY":0.0001779,"INCLINATION":87.9033,"RA_OF_ASC_NODE":338.7315,"ARG_OF_PERICENTER":68.3798,"MEAN_ANOMALY":291.7521,"EPHEMERIS_TYPE":0,"CLASSIFICATION_TYPE":"U","NORAD_CAT_ID":48053,"ELEMENT_SET_NO":999,"REV_AT_EPOCH":24129,"BSTAR":-0.00080231516,"MEAN_MOTION_DOT":-2.8e-6,"MEAN_MOTION_DDOT":0},{"OBJECT_NAME":"ONEWEB-0158","OBJECT_ID":"2021-025N","EPOCH":"2026-03-16T04:35:58.585056","MEAN_MOTION":13.13470622,"ECCENTRICITY":0.00017005,"INCLINATION":87.904,"RA_OF_ASC_NODE":338.7157,"ARG_OF_PERICENTER":89.8163,"MEAN_ANOMALY":270.3161,"EPHEMERIS_TYPE":0,"CLASSIFICATION_TYPE":"U","NORAD_CAT_ID":48054,"ELEMENT_SET_NO":999,"REV_AT_EPOCH":24142,"BSTAR":0.00058417825,"MEAN_MOTION_DOT":2.26e-6,"MEAN_MOTION_DDOT":0},{"OBJECT_NAME":"ONEWEB-0157","OBJECT_ID":"2021-025P","EPOCH":"2026-03-16T03:22:50.565792","MEAN_MOTION":13.13470646,"ECCENTRICITY":0.00021033,"INCLINATION":87.904,"RA_OF_ASC_NODE":338.7302,"ARG_OF_PERICENTER":72.0613,"MEAN_ANOMALY":288.0745,"EPHEMERIS_TYPE":0,"CLASSIFICATION_TYPE":"U","NORAD_CAT_ID":48055,"ELEMENT_SET_NO":999,"REV_AT_EPOCH":24135,"BSTAR":-0.00079507661,"MEAN_MOTION_DOT":-2.78e-6,"MEAN_MOTION_DDOT":0},{"OBJECT_NAME":"ONEWEB-0162","OBJECT_ID":"2021-025Q","EPOCH":"2026-03-16T04:38:12.423840","MEAN_MOTION":13.13468624,"ECCENTRICITY":0.00016841,"INCLINATION":87.904,"RA_OF_ASC_NODE":338.7243,"ARG_OF_PERICENTER":74.4111,"MEAN_ANOMALY":285.7204,"EPHEMERIS_TYPE":0,"CLASSIFICATION_TYPE":"U","NORAD_CAT_ID":48056,"ELEMENT_SET_NO":999,"REV_AT_EPOCH":24133,"BSTAR":0.00035802423,"MEAN_MOTION_DOT":1.43e-6,"MEAN_MOTION_DDOT":0},{"OBJECT_NAME":"ONEWEB-0155","OBJECT_ID":"2021-025R","EPOCH":"2026-03-16T04:48:10.053504","MEAN_MOTION":13.13469761,"ECCENTRICITY":0.00019234,"INCLINATION":87.9034,"RA_OF_ASC_NODE":338.7217,"ARG_OF_PERICENTER":78.8871,"MEAN_ANOMALY":281.2475,"EPHEMERIS_TYPE":0,"CLASSIFICATION_TYPE":"U","NORAD_CAT_ID":48057,"ELEMENT_SET_NO":999,"REV_AT_EPOCH":24147,"BSTAR":-7.5528712e-5,"MEAN_MOTION_DOT":-1.5e-7,"MEAN_MOTION_DDOT":0},{"OBJECT_NAME":"ONEWEB-0149","OBJECT_ID":"2021-025S","EPOCH":"2026-03-16T03:30:09.055296","MEAN_MOTION":13.13471207,"ECCENTRICITY":0.00016253,"INCLINATION":87.904,"RA_OF_ASC_NODE":338.7296,"ARG_OF_PERICENTER":72.5107,"MEAN_ANOMALY":287.62,"EPHEMERIS_TYPE":0,"CLASSIFICATION_TYPE":"U","NORAD_CAT_ID":48058,"ELEMENT_SET_NO":999,"REV_AT_EPOCH":24127,"BSTAR":-0.00066873867,"MEAN_MOTION_DOT":-2.31e-6,"MEAN_MOTION_DDOT":0},{"OBJECT_NAME":"ONEWEB-0148","OBJECT_ID":"2021-025T","EPOCH":"2026-03-16T04:26:12.526944","MEAN_MOTION":13.13472025,"ECCENTRICITY":0.00016454,"INCLINATION":87.9032,"RA_OF_ASC_NODE":338.7361,"ARG_OF_PERICENTER":58.4276,"MEAN_ANOMALY":301.7013,"EPHEMERIS_TYPE":0,"CLASSIFICATION_TYPE":"U","NORAD_CAT_ID":48059,"ELEMENT_SET_NO":999,"REV_AT_EPOCH":24140,"BSTAR":0.00098258447,"MEAN_MOTION_DOT":3.72e-6,"MEAN_MOTION_DDOT":0},{"OBJECT_NAME":"ONEWEB-0160","OBJECT_ID":"2021-025U","EPOCH":"2026-03-16T04:50:35.446560","MEAN_MOTION":13.13470507,"ECCENTRICITY":0.00013498,"INCLINATION":87.9031,"RA_OF_ASC_NODE":338.7291,"ARG_OF_PERICENTER":103.2305,"MEAN_ANOMALY":256.8975,"EPHEMERIS_TYPE":0,"CLASSIFICATION_TYPE":"U","NORAD_CAT_ID":48060,"ELEMENT_SET_NO":999,"REV_AT_EPOCH":24135,"BSTAR":-0.00018560994,"MEAN_MOTION_DOT":-5.5e-7,"MEAN_MOTION_DDOT":0},{"OBJECT_NAME":"ONEWEB-0163","OBJECT_ID":"2021-025V","EPOCH":"2026-03-16T04:28:39.953856","MEAN_MOTION":13.13470842,"ECCENTRICITY":0.00020074,"INCLINATION":87.9033,"RA_OF_ASC_NODE":338.7246,"ARG_OF_PERICENTER":74.2681,"MEAN_ANOMALY":285.867,"EPHEMERIS_TYPE":0,"CLASSIFICATION_TYPE":"U","NORAD_CAT_ID":48061,"ELEMENT_SET_NO":999,"REV_AT_EPOCH":24147,"BSTAR":0.00089970462,"MEAN_MOTION_DOT":3.41e-6,"MEAN_MOTION_DDOT":0},{"OBJECT_NAME":"ONEWEB-0159","OBJECT_ID":"2021-025W","EPOCH":"2026-03-16T04:16:28.752384","MEAN_MOTION":13.13469677,"ECCENTRICITY":0.00018488,"INCLINATION":87.9041,"RA_OF_ASC_NODE":338.7132,"ARG_OF_PERICENTER":72.1801,"MEAN_ANOMALY":287.953,"EPHEMERIS_TYPE":0,"CLASSIFICATION_TYPE":"U","NORAD_CAT_ID":48062,"ELEMENT_SET_NO":999,"REV_AT_EPOCH":24139,"BSTAR":0.00079443768,"MEAN_MOTION_DOT":3.03e-6,"MEAN_MOTION_DDOT":0},{"OBJECT_NAME":"ONEWEB-0164","OBJECT_ID":"2021-025X","EPOCH":"2026-03-16T03:49:39.372672","MEAN_MOTION":13.13471141,"ECCENTRICITY":0.00017274,"INCLINATION":87.9043,"RA_OF_ASC_NODE":338.7235,"ARG_OF_PERICENTER":81.3184,"MEAN_ANOMALY":278.8141,"EPHEMERIS_TYPE":0,"CLASSIFICATION_TYPE":"U","NORAD_CAT_ID":48063,"ELEMENT_SET_NO":999,"REV_AT_EPOCH":24137,"BSTAR":0.00017794478,"MEAN_MOTION_DOT":7.8e-7,"MEAN_MOTION_DDOT":0},{"OBJECT_NAME":"ONEWEB-0167","OBJECT_ID":"2021-025Y","EPOCH":"2026-03-16T04:29:53.999520","MEAN_MOTION":13.13471347,"ECCENTRICITY":0.00024079,"INCLINATION":87.9031,"RA_OF_ASC_NODE":338.7365,"ARG_OF_PERICENTER":84.3072,"MEAN_ANOMALY":275.8331,"EPHEMERIS_TYPE":0,"CLASSIFICATION_TYPE":"U","NORAD_CAT_ID":48064,"ELEMENT_SET_NO":999,"REV_AT_EPOCH":24136,"BSTAR":0.00072735091,"MEAN_MOTION_DOT":2.78e-6,"MEAN_MOTION_DDOT":0},{"OBJECT_NAME":"ONEWEB-0166","OBJECT_ID":"2021-025Z","EPOCH":"2026-03-16T03:13:05.065824","MEAN_MOTION":13.13470944,"ECCENTRICITY":0.00017238,"INCLINATION":87.9041,"RA_OF_ASC_NODE":338.7103,"ARG_OF_PERICENTER":72.414,"MEAN_ANOMALY":287.7178,"EPHEMERIS_TYPE":0,"CLASSIFICATION_TYPE":"U","NORAD_CAT_ID":48065,"ELEMENT_SET_NO":999,"REV_AT_EPOCH":24143,"BSTAR":-0.00070808554,"MEAN_MOTION_DOT":-2.46e-6,"MEAN_MOTION_DDOT":0},{"OBJECT_NAME":"ONEWEB-0151","OBJECT_ID":"2021-025AA","EPOCH":"2026-03-16T03:15:32.151456","MEAN_MOTION":13.13470322,"ECCENTRICITY":0.00018524,"INCLINATION":87.9033,"RA_OF_ASC_NODE":338.7354,"ARG_OF_PERICENTER":81.0265,"MEAN_ANOMALY":279.1074,"EPHEMERIS_TYPE":0,"CLASSIFICATION_TYPE":"U","NORAD_CAT_ID":48066,"ELEMENT_SET_NO":999,"REV_AT_EPOCH":24137,"BSTAR":-0.0007223835,"MEAN_MOTION_DOT":-2.51e-6,"MEAN_MOTION_DDOT":0},{"OBJECT_NAME":"ONEWEB-0170","OBJECT_ID":"2021-025AB","EPOCH":"2026-03-16T03:27:42.705792","MEAN_MOTION":13.13471138,"ECCENTRICITY":0.0001831,"INCLINATION":87.9031,"RA_OF_ASC_NODE":338.735,"ARG_OF_PERICENTER":93.8491,"MEAN_ANOMALY":266.2847,"EPHEMERIS_TYPE":0,"CLASSIFICATION_TYPE":"U","NORAD_CAT_ID":48067,"ELEMENT_SET_NO":999,"REV_AT_EPOCH":24133,"BSTAR":-0.00068399661,"MEAN_MOTION_DOT":-2.37e-6,"MEAN_MOTION_DDOT":0}]
